{
  "norad_id": 59493,
  "name": "STARLINK-31678",
  "history": [
    {
      "epoch": "2026-03-28T18:20:40.462944Z",
      "apogee_km": 484.0497244007229,
      "perigee_km": 481.9790289152488,
      "latitude_deg": 1.1712171699539539e-05,
      "longitude_deg": 138.38459617333143,
      "height_km": 482.83621681025863,
      "semi_major_axis_km": 6861.151376657986,
      "eccentricity": 0.0001509,
      "inclination_deg": 42.9984,
      "raan_deg": 239.7333,
      "arg_perigee_deg": 267.4958,
      "mean_anomaly_deg": 92.5721,
      "mean_motion_rev_day": 15.27591595
    }
  ]
}